start=new Date('2022-10-22T00:00:00.000Z').valueOf();
sats=[{"OBJECT_ID":"2020-019C","COUNTRY_CODE":"US","LAUNCH_DATE":"2020-03-18","INCLINATION":"53.0548","NORAD_CAT_ID":"45362","ELEMENT_SET_NO":"999","ECCENTRICITY":"0.00022170","SITE":"AFETR","TLE_LINE2":"2 45362  53.0548 311.4915 0002217  49.3332 310.7850 15.06403490143551","CENTER_NAME":"EARTH","REV_AT_EPOCH":"14355","TIME_SYSTEM":"UTC","SEMIMAJOR_AXIS":"6925.338","PERIAPSIS":"545.668","MEAN_MOTION":"15.06403490","MEAN_MOTION_DOT":"0.00000205","ARG_OF_PERICENTER":"49.3332","OBJECT_NAME":"STARLINK-1306","BSTAR":"0.00003269600000","MEAN_ANOMALY":"310.7850","TLE_LINE1":"1 45362U 20019C   22294.52641890  .00000205  00000-0  32696-4 0  9993","PERIOD":"95.592","MEAN_ELEMENT_THEORY":"SGP4","RCS_SIZE":"LARGE","EPHEMERIS_TYPE":"0","DECAY_DATE":null,"APOAPSIS":"548.738","REF_FRAME":"TEME","GP_ID":"215840706","OBJECT_TYPE":"PAYLOAD","RA_OF_ASC_NODE":"311.4915","FILE":"3628413","MEAN_MOTION_DDOT":"0.0000000000000","CLASSIFICATION_TYPE":"U","EPOCH":"2022-10-21T12:38:02.592960"},{"TLE_LINE2":"2 45364  53.0530 280.7634 0002149  47.6820 312.4351 15.06405494143996","CENTER_NAME":"EARTH","REV_AT_EPOCH":"14399","TIME_SYSTEM":"UTC","PERIAPSIS":"545.708","MEAN_MOTION":"15.06405494","SEMIMAJOR_AXIS":"6925.332","MEAN_MOTION_DOT":"0.00001896","OBJECT_ID":"2020-019E","LAUNCH_DATE":"2020-03-18","COUNTRY_CODE":"US","INCLINATION":"53.0530","ECCENTRICITY":"0.00021490","SITE":"AFETR","NORAD_CAT_ID":"45364","ELEMENT_SET_NO":"999","REF_FRAME":"TEME","GP_ID":"215839456","OBJECT_TYPE":"PAYLOAD","RA_OF_ASC_NODE":"280.7634","FILE":"3628413","CLASSIFICATION_TYPE":"U","EPOCH":"2022-10-21T16:30:15.293664","MEAN_MOTION_DDOT":"0.0000000000000","ARG_OF_PERICENTER":"47.6820","OBJECT_NAME":"STARLINK-1313","BSTAR":"0.00014612000000","MEAN_ANOMALY":"312.4351","TLE_LINE1":"1 45364U 20019E   22294.68767701  .00001896  00000-0  14612-3 0  9996","PERIOD":"95.592","MEAN_ELEMENT_THEORY":"SGP4","RCS_SIZE":"LARGE","EPHEMERIS_TYPE":"0","APOAPSIS":"548.685","DECAY_DATE":null},{"MEAN_MOTION_DOT":"0.00010919","TIME_SYSTEM":"UTC","PERIAPSIS":"544.593","MEAN_MOTION":"15.06766634","SEMIMAJOR_AXIS":"6924.225","REV_AT_EPOCH":"14376","TLE_LINE2":"2 45365  52.9986 291.8397 0002162  66.2889 293.8326 15.06766634143761","CENTER_NAME":"EARTH","SITE":"AFETR","ECCENTRICITY":"0.00021620","ELEMENT_SET_NO":"999","NORAD_CAT_ID":"45365","INCLINATION":"52.9986","OBJECT_ID":"2020-019F","LAUNCH_DATE":"2020-03-18","COUNTRY_CODE":"US","EPOCH":"2022-10-21T09:59:21.541920","CLASSIFICATION_TYPE":"U","MEAN_MOTION_DDOT":"0.0000000000000","FILE":"3627579","GP_ID":"215773904","OBJECT_TYPE":"PAYLOAD","RA_OF_ASC_NODE":"291.8397","REF_FRAME":"TEME","EPHEMERIS_TYPE":"0","RCS_SIZE":"LARGE","DECAY_DATE":null,"APOAPSIS":"547.587","PERIOD":"95.569","MEAN_ELEMENT_THEORY":"SGP4","BSTAR":"0.00074346000000","MEAN_ANOMALY":"293.8326","TLE_LINE1":"1 45365U 20019F   22294.41622155  .00010919  00000-0  74346-3 0  9997","ARG_OF_PERICENTER":"66.2889","OBJECT_NAME":"STARLINK-1317"},{"LAUNCH_DATE":"2020-03-18","COUNTRY_CODE":"US","OBJECT_ID":"2020-019G","ECCENTRICITY":"0.00020060","SITE":"AFETR","NORAD_CAT_ID":"45366","ELEMENT_SET_NO":"999","INCLINATION":"53.0556","REV_AT_EPOCH":"14360","CENTER_NAME":"EARTH","TLE_LINE2":"2 45366  53.0556 310.3550 0002006  47.8924 312.2235 15.06406122143608","MEAN_MOTION_DOT":"0.00000424","MEAN_MOTION":"15.06406122","PERIAPSIS":"545.806","SEMIMAJOR_AXIS":"6925.330","TIME_SYSTEM":"UTC","TLE_LINE1":"1 45366U 20019G   22294.77705708  .00000424  00000-0  47337-4 0  9994","MEAN_ANOMALY":"312.2235","BSTAR":"0.00004733700000","OBJECT_NAME":"STARLINK-1262","ARG_OF_PERICENTER":"47.8924","APOAPSIS":"548.584","DECAY_DATE":null,"RCS_SIZE":"LARGE","EPHEMERIS_TYPE":"0","MEAN_ELEMENT_THEORY":"SGP4","PERIOD":"95.592","RA_OF_ASC_NODE":"310.3550","OBJECT_TYPE":"PAYLOAD","GP_ID":"215840456","REF_FRAME":"TEME","CLASSIFICATION_TYPE":"U","EPOCH":"2022-10-21T18:38:57.731712","MEAN_MOTION_DDOT":"0.0000000000000","FILE":"3628413"},{"MEAN_MOTION_DOT":"-0.00000965","TIME_SYSTEM":"UTC","MEAN_MOTION":"15.06411306","PERIAPSIS":"545.836","SEMIMAJOR_AXIS":"6925.314","REV_AT_EPOCH":"14355","TLE_LINE2":"2 45367  53.0557 311.7424 0001939  43.1363 316.9778 15.06411306143552","CENTER_NAME":"EARTH","ELEMENT_SET_NO":"999","NORAD_CAT_ID":"45367","SITE":"AFETR","ECCENTRICITY":"0.00019390","INCLINATION":"53.0557","OBJECT_ID":"2020-019H","COUNTRY_CODE":"US","LAUNCH_DATE":"2020-03-18","MEAN_MOTION_DDOT":"0.0000000000000","CLASSIFICATION_TYPE":"U","EPOCH":"2022-10-21T11:13:06.660480","FILE":"3627579","GP_ID":"215774397","OBJECT_TYPE":"PAYLOAD","RA_OF_ASC_NODE":"311.7424","REF_FRAME":"TEME","RCS_SIZE":"LARGE","EPHEMERIS_TYPE":"0","APOAPSIS":"548.522","DECAY_DATE":null,"PERIOD":"95.591","MEAN_ELEMENT_THEORY":"SGP4","BSTAR":"-0.00004587100000","MEAN_ANOMALY":"316.9778","TLE_LINE1":"1 45367U 20019H   22294.46743820 -.00000965  00000-0 -45871-4 0  9991","OBJECT_NAME":"STARLINK-1273","ARG_OF_PERICENTER":"43.1363"},{"LAUNCH_DATE":"2020-03-18","COUNTRY_CODE":"US","OBJECT_ID":"2020-019J","ECCENTRICITY":"0.00020550","SITE":"AFETR","NORAD_CAT_ID":"45368","ELEMENT_SET_NO":"999","INCLINATION":"53.0543","REV_AT_EPOCH":"14360","CENTER_NAME":"EARTH","TLE_LINE2":"2 45368  53.0543 310.4010 0002055  40.9611 319.1532 15.06405737143606","MEAN_MOTION_DOT":"0.00000164","SEMIMAJOR_AXIS":"6925.331","PERIAPSIS":"545.773","MEAN_MOTION":"15.06405737","TIME_SYSTEM":"UTC","TLE_LINE1":"1 45368U 20019J   22294.76969337  .00000164  00000-0  29922-4 0  9996","MEAN_ANOMALY":"319.1532","BSTAR":"0.00002992200000","OBJECT_NAME":"STARLINK-1276","ARG_OF_PERICENTER":"40.9611","DECAY_DATE":null,"APOAPSIS":"548.619","RCS_SIZE":"LARGE","EPHEMERIS_TYPE":"0","MEAN_ELEMENT_THEORY":"SGP4","PERIOD":"95.592","RA_OF_ASC_NODE":"310.4010","OBJECT_TYPE":"PAYLOAD","GP_ID":"215839956","REF_FRAME":"TEME","CLASSIFICATION_TYPE":"U","EPOCH":"2022-10-21T18:28:21.507168","MEAN_MOTION_DDOT":"0.0000000000000","FILE":"3628413"},{"RCS_SIZE":"LARGE","EPHEMERIS_TYPE":"0","DECAY_DATE":null,"APOAPSIS":"548.393","PERIOD":"95.592","MEAN_ELEMENT_THEORY":"SGP4","BSTAR":"0.00011246000000","MEAN_ANOMALY":"300.3706","TLE_LINE1":"1 45369U 20019K   22294.76874510  .00001394  00000-0  11246-3 0  9990","ARG_OF_PERICENTER":"59.7452","OBJECT_NAME":"STARLINK-1277","MEAN_MOTION_DDOT":"0.0000000000000","EPOCH":"2022-10-21T18:26:59.576640","CLASSIFICATION_TYPE":"U","FILE":"3628413","GP_ID":"215840204","OBJECT_TYPE":"PAYLOAD","RA_OF_ASC_NODE":"310.3895","REF_FRAME":"TEME","ELEMENT_SET_NO":"999","NORAD_CAT_ID":"45369","SITE":"AFETR","ECCENTRICITY":"0.00017040","INCLINATION":"53.0555","OBJECT_ID":"2020-019K","COUNTRY_CODE":"US","LAUNCH_DATE":"2020-03-18","MEAN_MOTION_DOT":"0.00001394","TIME_SYSTEM":"UTC","SEMIMAJOR_AXIS":"6925.348","PERIAPSIS":"546.033","MEAN_MOTION":"15.06400284","REV_AT_EPOCH":"14360","TLE_LINE2":"2 45369  53.0555 310.3895 0001704  59.7452 300.3706 15.06400284143608","CENTER_NAME":"EARTH"},{"MEAN_MOTION":"15.06391232","PERIAPSIS":"545.765","SEMIMAJOR_AXIS":"6925.375","TIME_SYSTEM":"UTC","MEAN_MOTION_DOT":"0.00000039","CENTER_NAME":"EARTH","TLE_LINE2":"2 45370  53.0555 312.2383 0002131  42.3092 317.8061 15.06391232143548","REV_AT_EPOCH":"14354","INCLINATION":"53.0555","NORAD_CAT_ID":"45370","ELEMENT_SET_NO":"999","SITE":"AFETR","ECCENTRICITY":"0.00021310","COUNTRY_CODE":"US","LAUNCH_DATE":"2020-03-18","OBJECT_ID":"2020-019L","FILE":"3627579","MEAN_MOTION_DDOT":"0.0000000000000","EPOCH":"2022-10-21T08:39:12.138624","CLASSIFICATION_TYPE":"U","REF_FRAME":"TEME","RA_OF_ASC_NODE":"312.2383","OBJECT_TYPE":"PAYLOAD","GP_ID":"215774655","MEAN_ELEMENT_THEORY":"SGP4","PERIOD":"95.593","APOAPSIS":"548.716","DECAY_DATE":null,"RCS_SIZE":"LARGE","EPHEMERIS_TYPE":"0","OBJECT_NAME":"STARLINK-1281","ARG_OF_PERICENTER":"42.3092","TLE_LINE1":"1 45370U 20019L   22294.36055716  .00000039  00000-0  21546-4 0  9997","MEAN_ANOMALY":"317.8061","BSTAR":"0.00002154600000"},{"MEAN_MOTION_DDOT":"0.0000000000000","CLASSIFICATION_TYPE":"U","EPOCH":"2022-10-21T18:53:31.794720","FILE":"3628413","RA_OF_ASC_NODE":"310.3086","OBJECT_TYPE":"PAYLOAD","GP_ID":"215840707","REF_FRAME":"TEME","APOAPSIS":"548.554","DECAY_DATE":null,"EPHEMERIS_TYPE":"0","RCS_SIZE":"LARGE","MEAN_ELEMENT_THEORY":"SGP4","PERIOD":"95.592","TLE_LINE1":"1 45371U 20019M   22294.78717355 -.00000041  00000-0  16157-4 0  9994","MEAN_ANOMALY":"315.4586","BSTAR":"0.00001615700000","ARG_OF_PERICENTER":"44.6560","OBJECT_NAME":"STARLINK-1287","MEAN_MOTION_DOT":"-0.00000041","PERIAPSIS":"545.860","SEMIMAJOR_AXIS":"6925.342","MEAN_MOTION":"15.06402132","TIME_SYSTEM":"UTC","REV_AT_EPOCH":"14360","CENTER_NAME":"EARTH","TLE_LINE2":"2 45371  53.0551 310.3086 0001945  44.6560 315.4586 15.06402132143606","NORAD_CAT_ID":"45371","ELEMENT_SET_NO":"999","SITE":"AFETR","ECCENTRICITY":"0.00019450","INCLINATION":"53.0551","COUNTRY_CODE":"US","LAUNCH_DATE":"2020-03-18","OBJECT_ID":"2020-019M"},{"REV_AT_EPOCH":"14354","CENTER_NAME":"EARTH","TLE_LINE2":"2 45372  53.0530 312.0210 0002289  42.3811 317.7355 15.06399203143544","MEAN_MOTION_DOT":"0.00004443","SEMIMAJOR_AXIS":"6925.351","PERIAPSIS":"545.631","MEAN_MOTION":"15.06399203","TIME_SYSTEM":"UTC","COUNTRY_CODE":"US","LAUNCH_DATE":"2020-03-18","OBJECT_ID":"2020-019N","ELEMENT_SET_NO":"999","NORAD_CAT_ID":"45372","SITE":"AFETR","ECCENTRICITY":"0.00022890","INCLINATION":"53.0530","RA_OF_ASC_NODE":"312.0210","OBJECT_TYPE":"PAYLOAD","GP_ID":"215773655","REF_FRAME":"TEME","MEAN_MOTION_DDOT":"0.0000000000000","CLASSIFICATION_TYPE":"U","EPOCH":"2022-10-21T09:42:54.268992","FILE":"3627579","MEAN_ANOMALY":"317.7355","TLE_LINE1":"1 45372U 20019N   22294.40479478  .00004443  00000-0  31703-3 0  9997","BSTAR":"0.00031703000000","ARG_OF_PERICENTER":"42.3811","OBJECT_NAME":"STARLINK-1288","APOAPSIS":"548.801","DECAY_DATE":null,"RCS_SIZE":"LARGE","EPHEMERIS_TYPE":"0","MEAN_ELEMENT_THEORY":"SGP4","PERIOD":"95.592"}];
